0 FALCON 9 DEB
1 39291U 13055Z   13287.75160771  .00135369  00000-0  45432-2 0    70
2 39291 080.9925 300.2722 0790680 116.2994 252.3216 13.98244020  1046
0 FALCON 9 DEB
1 39291U 13055Z   13293.47314534  .00159425  00000-0  50643-2 0    84
2 39291 081.0322 294.6745 0787448 100.4423 272.1497 14.00090574  1846
